STARLINK-30934          
1 58395U 23178X   26068.13385654 -.00001159  00000+0 -27036-4 0  9997
2 58395  53.1615   3.9148 0001000 102.8812 257.2300 15.30187998129733
TOMORROW-S2             
1 60485U 24149T   26068.75188364  .00008133  00000+0  27683-3 0  9990
2 60485  97.3857 150.0385 0001648 234.3331 125.7757 15.30674935 86869
